ORBCOMM FM103           
1 40091U 14040F   24161.54006070  .00001509  00000+0  37200-3 0  9998
2 40091  47.0067 335.7389 0001662 346.0596  14.0243 14.56675651509741
ORBCOMM FM114           
1 41179U 15081A   24161.57252448  .00001947  00000+0  46839-3 0  9991
2 41179  47.0012 244.8485 0000440  43.7169 316.3751 14.56742700450114
ORBCOMM FM119           
1 41180U 15081B   24161.40685596  .00001239  00000+0  31210-3 0  9990
2 41180  46.9992 154.8265 0000740 179.4519 180.6367 14.56654674451349
ORBCOMM FM105           
1 41181U 15081C   24161.35858366  .00000755  00000+0  26216-3 0  9994
2 41181  47.0005 124.7047 0001046  76.3874 283.7122 14.44427656446837
ORBCOMM FM110           
1 41182U 15081D   24161.41273467  .00001993  00000+0  47879-3 0  9998
2 41182  47.0003 245.0091 0002975 258.7757 101.2794 14.56736930449967
ORBCOMM FM118           
1 41183U 15081E   24161.59611025  .00002010  00000+0  48251-3 0  9990
2 41183  47.0027 244.4602 0003018 257.4069 102.6478 14.56726719450090
ORBCOMM FM112           
1 41184U 15081F   24161.45167652  .00001926  00000+0  46469-3 0  9992
2 41184  46.9975 153.8163 0000453 116.9554 243.1378 14.56637486451299
ORBCOMM FM113           
1 41185U 15081G   24161.36035701  .00001922  00000+0  46391-3 0  9992
2 41185  46.9993 154.5190 0000392 186.0994 173.9886 14.56634615451268
